0 COSMOS 249 DEB *
1 06176U 68091CG  13281.80569829  .00000690  00000-0  13515-2 0  2867
2 06176 065.7288 047.2061 0471558 187.9730 253.5776 13.05897429553683
0 COSMOS 249 DEB *
1 06176U 68091CG  13283.77938231  .00000038  00000-0  68417-4 0  2872
2 06176 065.7345 042.8432 0472032 187.0368 172.4312 13.05897134553943
0 COSMOS 249 DEB *
1 06176U 68091CG  13287.30894174 -.00000232  00000-0 -29301-3 0  2889
2 06176 065.7293 035.0481 0471167 185.7085 205.6162 13.05909735554407
0 COSMOS 249 DEB *
1 06176U 68091CG  13289.62389655 -.00000279  00000-0 -37795-3 0  2897
2 06176 065.7290 029.9344 0471005 184.7490 288.8333 13.05909816554700
0 COSMOS 249 DEB *
1 06176U 68091CG  13290.67182517  .00000087  00000-0  15489-3 0  2916
2 06176 065.7285 027.6237 0471362 184.2794 175.4565 13.05907930554846
0 COSMOS 249 DEB *
1 06176U 68091CG  13292.45278816  .00000050  00000-0  21096-3 0  2902
2 06176 065.7284 023.6845 0470782 183.5596 268.2303 13.05905995555079
0 COSMOS 249 DEB *
1 06176U 68091CG  13294.60262706  .00000405  00000-0  84622-3 0  2911
2 06176 065.7282 018.9351 0470645 182.6575 295.1955 13.05903591555354
